STARLINK-4348           
1 53075U 22077AJ  22203.91667824  .00039727  00000+0  32746-3 0  9992
2 53075  97.6556  22.5830 0001237  91.7765 249.8547 15.70271504  1303
STARLINK-4347           
1 53076U 22077AK  22204.58335648 -.00113824  00000+0 -94785-3 0  9997
2 53076  97.6557  23.3110 0001576  71.3744  74.5616 15.70356698  2558
STARLINK-4315           
1 53077U 22077AL  22204.50001157 -.00034813  00000+0 -28727-3 0  9998
2 53077  97.6551  23.2219 0001431  72.2653 325.9065 15.70287572  2545
STARLINK-4322           
1 53078U 22077AM  22204.50001157  .00046670  00000+0  38499-3 0  9998
2 53078  97.6557  23.2239 0001863  72.5867 323.7707 15.70219633  2545
STARLINK-4327           
1 53079U 22077AN  22204.50001157 -.00006160  00000+0 -49816-4 0  9997
2 53079  97.6553  23.2237 0001546  71.5573 327.1753 15.70263394  2543
STARLINK-4330           
1 53080U 22077AP  22204.50001157  .00049580  00000+0  40854-3 0  9992
2 53080  97.6560  23.2241 0001790  66.9387 330.6151 15.70234516  2545
STARLINK-4326           
1 53081U 22077AQ  22203.91667824  .00074865  00000+0  61341-3 0  9994
2 53081  97.6564  22.5854 0001163  87.7370 256.7202 15.70277542  1303
STARLINK-4321           
1 53082U 22077AR  22204.50001157 -.00023744  00000+0 -19553-3 0  9992
2 53082  97.6574  23.2248 0001503  72.3391 327.0025 15.70262517  2549
STARLINK-4251           
1 53083U 22077AS  22204.16667824 -.01380835  00000+0 -13381-1 0  9993
2 53083  97.6558  22.8670 0001784  61.1261 274.3535 15.69264288  2498
STARLINK-4319           
1 53084U 22077AT  22203.91667824 -.00003887  00000+0 -30971-4 0  9991
2 53084  97.6569  22.5852 0001572  94.6226 250.5381 15.70303622  1309
STARLINK-4324           
1 53085U 22077AU  22204.16667824 -.00013282  00000+0 -10856-3 0  9999
2 53085  97.6568  22.8614 0001066  70.7207 248.3254 15.70307057  2491
STARLINK-4318           
1 53086U 22077AV  22204.16667824 -.00077512  00000+0 -64344-3 0  9997
2 53086  97.6559  22.8596 0001413  86.1681 232.5178 15.70316438  2497
STARLINK-4329           
1 53087U 22077AW  22204.16667824 -.00012647  00000+0 -10328-3 0  9999
2 53087  97.6571  22.8630 0001727  83.3297 236.9701 15.70313724  2496
STARLINK-4333           
1 53088U 22077AX  22204.16667824 -.00121303  00000+0 -10121-2 0  9990
2 53088  97.6569  22.8614 0001312  80.0385 239.8079 15.70333671  2491
FALCON 9 DEB            
1 53089U 22077AY  22203.83667566  .00156022  10997-4  54999-3 0  9994
2 53089  97.6734  22.7328 0008733 215.3708 144.6985 15.89084216  1871
FALCON 9 DEB            
1 53090U 22077AZ  22203.83347279  .00166273  12238-4  57063-3 0  9996
2 53090  97.6719  22.7353 0007020 200.8384 159.2603 15.89638018  1875
FALCON 9 DEB            
1 53091U 22077BA  22204.13957715  .00179939  14147-4  57152-3 0  9996
2 53091  97.6682  23.0960 0011590 197.3220 162.7659 15.91085919  1924
FALCON 9 DEB            
1 53092U 22077BB  22204.07435370  .00178524  13993-4  56021-3 0  9999
2 53092  97.6679  23.0266 0011587 182.6320 177.4893 15.91322973  1910
TIANLIAN 2-03           
1 53100U 22078A   22194.13372968 -.00182734 -28037-6 -12902-1 0  9994
2 53100  27.1659 175.2503 7307003 174.6584 353.4153  2.27743687    10
CZ-3B R/B               
1 53101U 22078B   22203.19284127  .00047655 -42771-6  11812-2 0  9992
2 53101  27.1293 172.0915 7241772 179.7090 181.4377  2.37586308   232
LARES-2                 
1 53105U 22080A   22204.23274078 -.00000017  00000+0  00000+0 0  9996
2 53105  70.1514  74.0403 0005761 283.1132  76.9000  6.38966559   628
MTCUBE 2 (ROBUSTA 1F)   
1 53106U 22080B   22204.33476456 -.00000003  00000+0  00000+0 0  9997
2 53106  70.1514  73.9831 0009674 252.6871 107.1928  6.42544674   621
ASTROBIOCUBESAT         
1 53107U 22080C   22200.97819634 -.00000003  00000+0  00000+0 0  9993
2 53107  70.1552  75.1563 0011061 250.0651 256.0616  6.42110366   301
TRISAT-R                
1 53108U 22080D   22204.02932132 -.00000003  00000+0  00000+0 0  9993
2 53108  70.1476  74.0987 0013297 260.1476  99.7439  6.42152070   511
GREENCUBE               
1 53109U 22080E   22204.09195216 -.00000003  00000+0  00000+0 0  9995
2 53109  70.1370  73.8720 0008911 241.5017 277.8851  6.42583262   493
2022-080F               
1 53110U 22080F   22202.38200716 -.00000003  00000+0  00000+0 0  9999
2 53110  70.1561  74.6607 0054446 119.2674  42.8048  6.42518267   383
CELESTA                 
1 53111U 22080G   22201.22212397 -.00000003  00000+0  00000+0 0  9990
2 53111  70.1472  75.0842 0008017 230.7865 129.1755  6.42529879   302
2022-080H               
1 53112U 22080H   22198.10887513 -.00000003  00000+0  00000+0 0  9991
2 53112  70.1079  76.1305 0008801 258.2646 101.5904  6.42592873   118
DRAGON CRS-25           
1 53113U 22081A   22203.46960946  .00003068  00000+0  61583-4 0  9992
2 53113  51.6415 161.8339 0005168  35.9781  54.7009 15.50067047  1169
SUPERVIEW NEO-2 O1      
1 53128U 22082A   22204.44178012  .00005246  00000+0  21543-3 0  9994
2 53128  97.3853 212.3314 0011469 238.6735 259.1085 15.24578506  1146
CZ-2C DEB               
1 53129U 22082B   22203.75812874  .00026189  00000+0  10415-2 0  9993
2 53129  97.3849 211.6616 0011419 248.5183 111.4814 15.25204163  1046
SUPERVIEW NEO-2 02      
1 53130U 22082C   22204.43787666  .00005318  00000+0  21321-3 0  9991
2 53130  97.3848 212.3360 0011893 256.0507 241.8344 15.25380194  1147
CZ-2C R/B               
1 53131U 22082D   22204.55770228  .00010976  00000+0  30467-3 0  9998
2 53131  97.3583 212.4951 0048746 346.8668  13.1301 15.35858858  1167
STARLINK-4063           
1 53132U 22083A   22204.16667824 -.01230575  00000+0 -57150-2 0  9993
2 53132  53.2174  19.4416 0020726  51.3403 223.3459 15.85125866  1529
STARLINK-4154           
1 53133U 22083B   22204.16667824 -.01231190  00000+0 -57370-2 0  9992
2 53133  53.2174  19.4463 0021600  51.7200 221.1099 15.85019722  1522
STARLINK-4150           
1 53134U 22083C   22204.58335648 -.01174668  00000+0 -57780-2 0  9996
2 53134  53.2177  17.3465 0017805  51.2303  80.7390 15.83941595  1596
STARLINK-4023           
1 53135U 22083D   22204.16667824 -.01230745  00000+0 -57404-2 0  9997
2 53135  53.2174  19.4455 0020807  51.4511 221.7202 15.85035521  1522
STARLINK-4152           
1 53136U 22083E   22204.16667824 -.01230752  00000+0 -57341-2 0  9996
2 53136  53.2174  19.4444 0020896  51.1903 222.2793 15.85053921  1526
STARLINK-4145           
1 53137U 22083F   22204.16667824 -.01230581  00000+0 -57258-2 0  9994
2 53137  53.2174  19.4438 0020671  51.0800 222.9942 15.85090175  1521
STARLINK-4141           
1 53138U 22083G   22204.16667824 -.01351656  52543-3 -39581-2 0  9994
2 53138  53.2175  19.2948 0030858  54.8966 297.1810 15.91277660  1520
STARLINK-4185           
1 53139U 22083H   22204.33334491 -.01180321  00000+0 -55857-2 0  9995
2 53139  53.2173  18.6013 0019128  50.4666  96.3226 15.84693794  1556
STARLINK-4170           
1 53140U 22083J   22203.91667824 -.01388445  52444-3 -54674-2 0  9995
2 53140  53.2175  20.7028 0023289  50.0364 237.2168 15.85798742  1308
STARLINK-4103           
1 53141U 22083K   22204.58335648 -.01176380  00000+0 -57498-2 0  9993
2 53141  53.2177  17.3414 0017077  49.2723  85.6689 15.84104506  1591
STARLINK-4101           
1 53142U 22083L   22204.16667824 -.01230551  00000+0 -56982-2 0  9990
2 53142  53.2174  19.4404 0020811  51.4767 224.0941 15.85181233  1520
STARLINK-4102           
1 53143U 22083M   22204.58335648 -.01176551  00000+0 -57435-2 0  9996
2 53143  53.2177  17.3408 0017252  49.4235  85.8272 15.84123745  1597
STARLINK-4100           
1 53144U 22083N   22204.16667824 -.01230556  00000+0 -56922-2 0  9991
2 53144  53.2174  19.4398 0020896  51.3527 224.5261 15.85198815  1524
STARLINK-4106           
1 53145U 22083P   22204.58335648 -.01176858  00000+0 -57408-2 0  9998
2 53145  53.2177  17.3396 0016742  48.9821  86.9398 15.84158904  1599
STARLINK-4099           
1 53146U 22083Q   22204.16667824 -.01230520  00000+0 -56878-2 0  9994
2 53146  53.2174  19.4393 0020846  51.7234 224.4692 15.85216050  1524
STARLINK-4094           
1 53147U 22083R   22204.25001157 -.01175637  00000+0 -54595-2 0  9997
2 53147  53.2175  19.0166 0019467  49.9561 343.5832 15.85052904  1535
STARLINK-4066           
1 53148U 22083S   22204.58335648 -.01176670  00000+0 -57406-2 0  9991
2 53148  53.2177  17.3399 0017138  49.4610  86.1313 15.84140869  1597
STARLINK-4021           
1 53149U 22083T   22204.58335648 -.01179207  00000+0 -56733-2 0  9993
2 53149  53.2177  17.3304 0017732  49.6402  90.8350 15.84410155  1596
STARLINK-4038           
1 53150U 22083U   22204.58335648 -.01177181  00000+0 -57429-2 0  9997
2 53150  53.2177  17.3380 0015723  47.8375  88.7381 15.84195275  1592
STARLINK-4040           
1 53151U 22083V   22204.58335648 -.01177462  00000+0 -57323-2 0  9993
2 53151  53.2177  17.3365 0015479  48.2762  89.3032 15.84247568  1592
STARLINK-4045           
1 53152U 22083W   22204.58335648 -.01177200  00000+0 -57307-2 0  9996
2 53152  53.2177  17.3374 0016485  49.1927  87.7317 15.84211492  1599
STARLINK-4098           
1 53153U 22083X   22204.58335648 -.01177708  00000+0 -57226-2 0  9990
2 53153  53.2177  17.3360 0016038  48.5684  89.3113 15.84267112  1594
STARLINK-4077           
1 53154U 22083Y   22204.58335648 -.01177455  00000+0 -57254-2 0  9991
2 53154  53.2177  17.3368 0016622  48.9676  88.2686 15.84230464  1590
STARLINK-4088           
1 53155U 22083Z   22204.58335648 -.01178189  00000+0 -57102-2 0  9999
2 53155  53.2177  17.3341 0016037  48.6189  90.2320 15.84321248  1597
STARLINK-4087           
1 53156U 22083AA  22204.58335648 -.01178059  00000+0 -57153-2 0  9992
2 53156  53.2177  17.3342 0015959  48.4194  90.1090 15.84303189  1592
STARLINK-4093           
1 53157U 22083AB  22204.58335648 -.01178458  00000+0 -56887-2 0  9999
2 53157  53.2177  17.3328 0017277  50.0228  89.4654 15.84357462  1599
